STARLINK-30966          
1 58454U 23183T   26157.01454529  .00001913  00000+0  78993-4 0  9997
2 58454  43.0034 262.7069 0000952 273.4044  86.6698 15.27587066140245
STARLINK-30935          
1 58455U 23183U   26157.56590647  .00002530  00000+0  10142-3 0  9997
2 58455  43.0003 259.9578 0001890 263.0334  97.0302 15.27582760140327
STARLINK-30958          
1 58457U 23183W   26157.58501347  .00002409  00000+0  96972-4 0  9991
2 58457  43.0013 259.2508 0001090 282.9593  77.1137 15.27596934140339
STARLINK-30962          
1 58458U 23183X   26157.57732731  .00001495  00000+0  63843-4 0  9999
2 58458  43.0009 259.1931 0001588 268.4175  91.6495 15.27584602140338
STARLINK-30977          
1 58459U 23183Y   26157.56974938  .00002951  00000+0  11664-3 0  9997
2 58459  42.9993 259.9844 0001288 265.2589  94.8115 15.27601744140321
STARLINK-30947          
1 58473U 23186A   26157.08576514  .00003543  00000+0  13823-3 0  9998
2 58473  43.0068 287.9862 0003237 263.9807  96.0676 15.27582817139375
STARLINK-30941          
1 58475U 23186C   26157.08834028  .00000750  00000+0  36797-4 0  9990
2 58475  43.0044 288.0070 0002330 272.2657  87.7928 15.27578962139376
STARLINK-30980          
1 58476U 23186D   26156.11139839  .00003159  00000+0  12427-3 0  9991
2 58476  43.0037 293.5649 0002432 268.0001  92.0573 15.27584124139227
STARLINK-30965          
1 58477U 23186E   26157.58625281 -.00001176  00000+0 -33216-4 0  9994
2 58477  43.0068 270.1512 0003015 269.9058  90.1448 15.27561458139621
STARLINK-30990          
1 58478U 23186F   26157.08191572 -.00000239  00000+0  85905-6 0  9993
2 58478  43.0051 287.9493 0001721 257.7537 102.3122 15.27575356139411
STARLINK-30984          
1 58480U 23186H   26157.63617406  .00004093  00000+0  15811-3 0  9993
2 58480  43.0037 280.9599 0002430 297.3274  62.7330 15.27595479139502
STARLINK-30956          
1 58481U 23186J   26157.55938812  .00002751  00000+0  10943-3 0  9992
2 58481  43.0009 259.3914 0001560 269.7042  90.3630 15.27593096139741
STARLINK-30997          
1 58482U 23186K   26157.08112410  .00037756  00000+0  13739-2 0  9997
2 58482  43.0022 284.5089 0003628 266.4503  93.5933 15.27591488139411
STARLINK-30994          
1 58483U 23186L   26156.18760819  .00008387  00000+0  28076-3 0  9999
2 58483  42.9986 125.3403 0001507 218.7280 141.3465 15.31240284141197
STARLINK-30991          
1 58484U 23186M   26157.63490649 -.00000138  00000+0  45250-5 0  9994
2 58484  43.0040 280.9513 0002595 259.4757 100.5803 15.27570307139489
STARLINK-30979          
1 58485U 23186N   26157.61320529  .00005122  00000+0  19537-3 0  9996
2 58485  43.0022 281.6510 0000345 232.1158 127.9663 15.27605433139485
STARLINK-31005          
1 58486U 23186P   26157.60678139  .00000910  00000+0  42565-4 0  9997
2 58486  43.0026 281.6035 0000846 256.1659 103.9098 15.27585601139480
STARLINK-30987          
1 58487U 23186Q   26157.61063158  .00004970  00000+0  18990-3 0  9992
2 58487  43.0030 281.6264 0001443 262.6507  97.4181 15.27599143139484
STARLINK-31000          
1 58488U 23186R   26152.76048650  .00000525  00000+0  28613-4 0  9990
2 58488  43.0049 308.8699 0002508 251.6401 108.4178 15.27567370138747
STARLINK-30993          
1 58489U 23186S   26157.07984192  .00002379  00000+0  95957-4 0  9994
2 58489  43.0029 284.5296 0001653 270.4516  89.6146 15.27580641139400
STARLINK-30978          
1 58490U 23186T   26157.06956519 -.00000282  00000+0 -72763-6 0  9992
2 58490  43.0014 284.4534 0000401 320.3060  39.7762 15.27574519139406
STARLINK-30953          
1 58491U 23186U   26156.65703685  .00000738  00000+0  36339-4 0  9992
2 58491  43.0034 130.7067 0001713 274.9576  85.1080 15.27579868141342
STARLINK-30986          
1 58492U 23186V   26157.65417548  .00000661  00000+0  33548-4 0  9998
2 58492  43.0058 281.1013 0002290 273.7464  86.3126 15.27582559139493
STARLINK-30985          
1 58493U 23186W   26157.64652868 -.00008565  00000+0 -30269-3 0  9993
2 58493  43.0034 281.0368 0001846 283.9870  76.0776 15.27513439139498
STARLINK-30981          
1 58494U 23186X   26157.64259558  .00004025  00000+0  15564-3 0  9999
2 58494  43.0054 281.0045 0001929 296.4999  63.5655 15.27599458139498
STARLINK-31002          
1 58495U 23186Y   26157.61706968  .00000257  00000+0  18880-4 0  9997
2 58495  43.0070 281.6742 0002983 272.1854  87.8656 15.27575048139656
STARLINK-31026          
1 58508U 23191A   26157.18666456  .00002877  00000+0  11411-3 0  9999
2 58508  43.0046 330.6489 0001902 263.5257  96.5378 15.27558067138927
STARLINK-31020          
1 58509U 23191B   26157.63282580 -.00024160  00000+0 -87265-3 0  9993
2 58509  43.0024 327.9771 0001398 285.9026  74.1672 15.27528349138994
STARLINK-30989          
1 58510U 23191C   26157.19280531  .00001425  00000+0  61296-4 0  9994
2 58510  43.0024 323.8830 0001512 239.7875 120.2827 15.27582027139038
STARLINK-30968          
1 58511U 23191D   26157.52359358  .00003413  00000+0  13345-3 0  9996
2 58511  43.0058 322.0652 0002241 283.4653  76.5949 15.27590812139050
