OBJECT_NAME,OBJECT_ID,EPOCH,MEAN_MOTION,ECCENTRICITY,INCLINATION,RA_OF_ASC_NODE,ARG_OF_PERICENTER,MEAN_ANOMALY,EPHEMERIS_TYPE,CLASSIFICATION_TYPE,NORAD_CAT_ID,ELEMENT_SET_NO,REV_AT_EPOCH,BSTAR,MEAN_MOTION_DOT,MEAN_MOTION_DDOT
STARLINK-30966,2023-183T,2026-06-06T00:20:56.713056,15.27587066,.0000952,43.0034,262.7069,273.4044,86.6698,0,U,58454,999,14024,.78993E-4,.1913E-4,0
STARLINK-30935,2023-183U,2026-06-06T13:34:54.319008,15.27582760,.00018906,43.0003,259.9578,263.0334,97.0302,0,U,58455,999,14032,.10141614E-3,.253E-4,0
STARLINK-30958,2023-183W,2026-06-06T14:02:25.163808,15.27596934,.00010902,43.0013,259.2508,282.9593,77.1137,0,U,58457,999,14033,.96971863E-4,.2409E-4,0
STARLINK-30962,2023-183X,2026-06-06T13:51:21.079584,15.27584602,.00015887,43.0009,259.1931,268.4175,91.6495,0,U,58458,999,14033,.63842789E-4,.1495E-4,0
STARLINK-30977,2023-183Y,2026-06-06T13:40:26.346432,15.27601744,.0001288,42.9993,259.9844,265.2589,94.8115,0,U,58459,999,14032,.11664336E-3,.2951E-4,0
STARLINK-30947,2023-186A,2026-06-06T02:03:30.108096,15.27582817,.0003237,43.0068,287.9862,263.9807,96.0676,0,U,58473,999,13937,.13823E-3,.3543E-4,0
STARLINK-30941,2023-186C,2026-06-06T02:07:12.600192,15.27578962,.000233,43.0044,288.0070,272.2657,87.7928,0,U,58475,999,13937,.36797E-4,.75E-5,0
STARLINK-30980,2023-186D,2026-06-05T02:40:24.820896,15.27584124,.00024328,43.0037,293.5649,268.0001,92.0573,0,U,58476,999,13922,.12427346E-3,.3159E-4,0
STARLINK-30965,2023-186E,2026-06-06T14:04:12.242784,15.27561458,.00030152,43.0068,270.1512,269.9058,90.1448,0,U,58477,999,13962,-.33215742E-4,-.1176E-4,0
STARLINK-30990,2023-186F,2026-06-06T01:57:57.518208,15.27575356,.0001721,43.0051,287.9493,257.7537,102.3122,0,U,58478,999,13941,.85905E-6,-.239E-5,0
STARLINK-30984,2023-186H,2026-06-06T15:16:05.438784,15.27595479,.00024307,43.0037,280.9599,297.3274,62.7330,0,U,58480,999,13950,.15811325E-3,.4093E-4,0
STARLINK-30956,2023-186J,2026-06-06T13:25:31.133568,15.27593096,.00015609,43.0009,259.3914,269.7042,90.3630,0,U,58481,999,13974,.10943282E-3,.2751E-4,0
STARLINK-30997,2023-186K,2026-06-06T01:56:49.122240,15.27591488,.0003628,43.0022,284.5089,266.4503,93.5933,0,U,58482,999,13941,.13739E-2,.37756E-3,0
STARLINK-30994,2023-186L,2026-06-05T04:30:09.347616,15.31240284,.00015079,42.9986,125.3403,218.7280,141.3465,0,U,58483,999,14119,.2807615E-3,.8387E-4,0
STARLINK-30991,2023-186M,2026-06-06T15:14:15.920736,15.27570307,.00025958,43.0040,280.9513,259.4757,100.5803,0,U,58484,999,13948,.4525027E-5,-.138E-5,0
STARLINK-30979,2023-186N,2026-06-06T14:43:00.937056,15.27605433,.00003458,43.0022,281.6510,232.1158,127.9663,0,U,58485,999,13948,.19537305E-3,.5122E-4,0
STARLINK-31005,2023-186P,2026-06-06T14:33:45.912096,15.27585601,.00008467,43.0026,281.6035,256.1659,103.9098,0,U,58486,999,13948,.42564624E-4,.91E-5,0
STARLINK-30987,2023-186Q,2026-06-06T14:39:18.568512,15.27599143,.00014434,43.0030,281.6264,262.6507,97.4181,0,U,58487,999,13948,.18990204E-3,.497E-4,0
STARLINK-31000,2023-186R,2026-06-01T18:15:06.033600,15.27567370,.00025086,43.0049,308.8699,251.6401,108.4178,0,U,58488,999,13874,.28612933E-4,.525E-5,0
STARLINK-30993,2023-186S,2026-06-06T01:54:58.341888,15.27580641,.0001653,43.0029,284.5296,270.4516,89.6146,0,U,58489,999,13940,.95957E-4,.2379E-4,0
STARLINK-30978,2023-186T,2026-06-06T01:40:10.432416,15.27574519,.0000401,43.0014,284.4534,320.3060,39.7762,0,U,58490,999,13940,-.72763E-6,-.282E-5,0
STARLINK-30953,2023-186U,2026-06-05T15:46:07.983840,15.27579868,.00017139,43.0034,130.7067,274.9576,85.1080,0,U,58491,999,14134,.36338817E-4,.738E-5,0
STARLINK-30986,2023-186V,2026-06-06T15:42:00.761472,15.27582559,.00022908,43.0058,281.1013,273.7464,86.3126,0,U,58492,999,13949,.33548187E-4,.661E-5,0
STARLINK-30985,2023-186W,2026-06-06T15:31:00.077952,15.27513439,.00018466,43.0034,281.0368,283.9870,76.0776,0,U,58493,999,13949,-.30269251E-3,-.8565E-4,0
STARLINK-30981,2023-186X,2026-06-06T15:25:20.258112,15.27599458,.00019295,43.0054,281.0045,296.4999,63.5655,0,U,58494,999,13949,.15564172E-3,.4025E-4,0
STARLINK-31002,2023-186Y,2026-06-06T14:48:34.820352,15.27575048,.00029832,43.0070,281.6742,272.1854,87.8656,0,U,58495,999,13965,.18880349E-4,.257E-5,0
STARLINK-31026,2023-191A,2026-06-06T04:28:47.817984,15.27558067,.00019022,43.0046,330.6489,263.5257,96.5378,0,U,58508,999,13892,.1141109E-3,.2877E-4,0
STARLINK-31020,2023-191B,2026-06-06T15:11:16.149120,15.27528349,.00013987,43.0024,327.9771,285.9026,74.1672,0,U,58509,999,13899,-.87264624E-3,-.2416E-3,0
STARLINK-30989,2023-191C,2026-06-06T04:37:38.378784,15.27582027,.00015128,43.0024,323.8830,239.7875,120.2827,0,U,58510,999,13903,.61295934E-4,.1425E-4,0
STARLINK-30968,2023-191D,2026-06-06T12:33:58.485312,15.27590812,.00022418,43.0058,322.0652,283.4653,76.5949,0,U,58511,999,13905,.13344813E-3,.3413E-4,0
